<?xml version="1.0" encoding="UTF-8"?>
<kml xmlns="http://www.opengis.net/kml/2.2" xmlns:gx="http://www.google.com/kml/ext/2.2" xmlns:kml="http://www.opengis.net/kml/2.2" xmlns:atom="http://www.w3.org/2005/Atom">
<Document>
	<name>DUNAH_Pacifico.kmz</name>
	<StyleMap id="m_ylw-pushpin00">
		<Pair>
			<key>normal</key>
			<styleUrl>#s_ylw-pushpin30</styleUrl>
		</Pair>
		<Pair>
			<key>highlight</key>
			<styleUrl>#s_ylw-pushpin_hl010</styleUrl>
		</Pair>
	</StyleMap>
	<Style id="s_ylw-pushpin30">
		<IconStyle>
			<scale>1.1</scale>
			<Icon>
				<href>http://maps.google.com/mapfiles/kml/pushpin/ylw-pushpin.png</href>
			</Icon>
			<hotSpot x="20" y="2" xunits="pixels" yunits="pixels"/>
		</IconStyle>
		<LineStyle>
			<color>e8ff0000</color>
			<width>2.4</width>
		</LineStyle>
		<PolyStyle>
			<color>477f0000</color>
		</PolyStyle>
	</Style>
	<Style id="s_ylw-pushpin_hl010">
		<IconStyle>
			<scale>1.3</scale>
			<Icon>
				<href>http://maps.google.com/mapfiles/kml/pushpin/ylw-pushpin.png</href>
			</Icon>
			<hotSpot x="20" y="2" xunits="pixels" yunits="pixels"/>
		</IconStyle>
		<LineStyle>
			<color>e8ff0000</color>
			<width>2.4</width>
		</LineStyle>
		<PolyStyle>
			<color>477f0000</color>
		</PolyStyle>
	</Style>
	<Placemark>
		<name>DUNAH</name>
		<snippet></snippet>
		<LookAt>
			<longitude>-107.195953043484</longitude>
			<latitude>23.72457645959538</latitude>
			<altitude>0</altitude>
			<heading>-1.905052661541286</heading>
			<tilt>0</tilt>
			<range>659444.0072799352</range>
			<gx:altitudeMode>relativeToSeaFloor</gx:altitudeMode>
		</LookAt>
		<styleUrl>#m_ylw-pushpin00</styleUrl>
		<MultiGeometry>
			<Point>
				<gx:drawOrder>1</gx:drawOrder>
				<coordinates>-110.6964379023315,23.80107394503873,0</coordinates>
			</Point>
			<Point>
				<gx:drawOrder>1</gx:drawOrder>
				<coordinates>-110.7060354129158,23.7937581826108,0</coordinates>
			</Point>
			<Point>
				<gx:drawOrder>1</gx:drawOrder>
				<coordinates>-110.7153685765198,23.80366620882512,0</coordinates>
			</Point>
			<Point>
				<gx:drawOrder>1</gx:drawOrder>
				<coordinates>-110.7115729442569,23.80653147563249,0</coordinates>
			</Point>
			<Point>
				<gx:drawOrder>1</gx:drawOrder>
				<coordinates>-110.7121018291234,23.80709247465526,0</coordinates>
			</Point>
			<Point>
				<gx:drawOrder>1</gx:drawOrder>
				<coordinates>-110.7060146950236,23.81168753481258,0</coordinates>
			</Point>
			<Polygon>
				<tessellate>1</tessellate>
				<outerBoundaryIs>
					<LinearRing>
						<coordinates>
							-110.7059813075004,23.81174399411398,0 -110.7120290321669,23.80704007804547,0 -110.7115191718074,23.80651758151702,0 -110.7153878772165,23.80365790671559,0 -110.7059931974503,23.79370622553461,0 -110.6964295218348,23.80105693824442,0 -110.7059813075004,23.81174399411398,0 
						</coordinates>
					</LinearRing>
				</outerBoundaryIs>
			</Polygon>
		</MultiGeometry>
		<atom:link rel="app" href="https://www.google.com/earth/about/versions/#earth-pro" title="Google Earth Pro 7.3.6.10201"></atom:link>
	</Placemark>
</Document>
</kml>
